OBJECT_NAME,OBJECT_ID,EPOCH,MEAN_MOTION,ECCENTRICITY,INCLINATION,RA_OF_ASC_NODE,ARG_OF_PERICENTER,MEAN_ANOMALY,EPHEMERIS_TYPE,CLASSIFICATION_TYPE,NORAD_CAT_ID,ELEMENT_SET_NO,REV_AT_EPOCH,BSTAR,MEAN_MOTION_DOT,MEAN_MOTION_DDOT
GSAT0215 (GALILEO 19),2017-079A,2026-06-18T18:36:27.330912,1.70474593,.0003228,55.0730,221.4630,264.0800,95.9660,0,U,43055,999,5301,0,.28E-6,0
GSAT0216 (GALILEO 20),2017-079B,2026-06-17T21:26:22.395264,1.70474666,.00043172,55.0732,221.4873,276.2784,83.7610,0,U,43056,999,5301,0,.34E-6,0
GSAT0217 (GALILEO 21),2017-079C,2026-06-16T08:30:18.751680,1.70474228,.00049855,55.0717,221.5274,283.8791,76.1632,0,U,43057,999,5297,0,.47E-6,0
GSAT0218 (GALILEO 22),2017-079D,2026-06-19T12:10:33.425184,1.70474769,.0004305,55.0708,221.4378,273.7481,86.2815,0,U,43058,999,5305,0,.26E-6,0
BEIDOU-3 M7 (C27),2018-003A,2026-06-17T21:17:59.275968,1.86227917,.0004854,54.3274,302.2910,94.3023,265.7447,0,U,43107,999,5736,0,-.76E-6,0
BEIDOU-3 M8 (C28),2018-003B,2026-06-18T21:44:52.181664,1.86230761,.0002559,54.3190,302.2369,260.8870,99.0779,0,U,43108,999,5739,0,-.81E-6,0
BEIDOU-3 M4 (C22),2018-018A,2026-06-18T06:36:21.724416,1.86230873,.0007707,56.6521,63.1126,19.0373,341.0335,0,U,43207,999,5676,0,-.55E-6,0
BEIDOU-3 M3 (C21),2018-018B,2026-06-18T08:12:05.696640,1.86230730,.0008713,56.6516,63.1145,341.3004,18.7097,0,U,43208,999,5676,0,-.56E-6,0
BEIDOU-3 M9 (C29),2018-029A,2026-06-16T09:52:51.223872,1.86227970,.00010054,54.1945,299.9756,155.7517,204.2422,0,U,43245,999,5588,0,-.69E-6,0
BEIDOU-3 M10 (C30),2018-029B,2026-06-19T00:44:26.693664,1.86229038,.0003782,54.1899,299.9108,40.0504,319.9737,0,U,43246,999,5591,0,-.8E-6,0
IRNSS-1I,2018-035A,2026-06-15T20:09:20.172384,1.00272046,.00178117,28.7520,74.2167,181.5598,5.5147,0,U,43286,999,3006,0,.62E-6,0
COSMOS 2527 (756),2018-053A,2026-06-17T02:01:57.002592,2.13102067,.00069742,65.5776,73.9111,239.2690,120.6969,0,U,43508,999,6227,0,-.19E-6,0
BEIDOU-2 IGSO-7 (C16),2018-057A,2026-06-19T20:17:30.373152,1.00250533,.0104989,55.1957,163.0333,237.9916,281.1474,0,U,43539,999,2915,0,-.31E-6,0
GSAT0221 (GALILEO 25),2018-060A,2026-06-17T15:38:14.173152,1.70475954,.00025957,57.1692,341.7677,303.5364,56.4325,0,U,43564,999,4917,0,-.9E-6,0
GSAT0222 (GALILEO 26),2018-060B,2026-06-19T01:03:54.477792,1.70475706,.00019994,57.1718,341.7337,248.0862,111.8861,0,U,43565,999,4924,0,-.93E-6,0
GSAT0219 (GALILEO 23),2018-060C,2026-06-16T07:58:35.300928,1.70475853,.00020383,57.1726,341.8084,324.7693,35.2133,0,U,43566,999,4917,0,-.86E-6,0
GSAT0220 (GALILEO 24),2018-060D,2026-06-19T11:40:13.372032,1.70475760,.0002112,57.1712,341.7225,313.2574,46.7188,0,U,43567,999,4921,0,-.94E-6,0
BEIDOU-3 M5 (C23),2018-062A,2026-06-18T17:13:50.397888,1.86228577,.00056606,54.0850,182.2515,289.9886,69.9738,0,U,43581,999,5366,0,.56E-6,0
BEIDOU-3 M6 (C24),2018-062B,2026-06-19T02:50:28.013856,1.86227867,.00049548,54.0852,182.2272,8.3379,351.6928,0,U,43582,999,5367,0,.57E-6,0
BEIDOU-3 M12 (C26),2018-067A,2026-06-18T12:28:33.455424,1.86227728,.00078147,54.1807,180.9950,29.6797,330.3861,0,U,43602,999,5314,0,.56E-6,0
BEIDOU-3 M11 (C25),2018-067B,2026-06-19T04:36:16.596864,1.86227141,.00045037,54.1779,180.9358,12.7373,347.2939,0,U,43603,999,5318,0,.59E-6,0
BEIDOU-3 M13 (C32),2018-072A,2026-06-19T03:31:17.584320,1.86231019,.0007172,56.6261,62.5952,330.4158,29.5857,0,U,43622,999,5269,0,-.62E-6,0
BEIDOU-3 M14 (C33),2018-072B,2026-06-16T20:44:38.189760,1.86231280,.00061896,56.6260,62.6651,359.6599,0.3805,0,U,43623,999,5264,0,-.51E-6,0
BEIDOU-3 M16 (C35),2018-078A,2026-06-16T11:35:05.186688,1.86232208,.00072021,54.0905,300.0107,41.0576,318.9858,0,U,43647,999,5214,0,-.69E-6,0
BEIDOU-3 M15 (C34),2018-078B,2026-06-18T05:20:52.884384,1.86232335,.0004125,54.0846,299.9501,57.8841,302.1506,0,U,43648,999,5219,0,-.76E-6,0
BEIDOU-3 G1 (C59),2018-085A,2026-06-19T18:46:09.896736,1.00270301,.0008086,2.8758,97.2945,350.2012,261.9907,0,U,43683,999,2808,0,-.115E-5,0
COSMOS 2529 (757),2018-086A,2026-06-18T02:52:19.877664,2.13101950,.00120661,64.2948,192.5630,256.5324,103.3830,0,U,43687,999,5930,0,.57E-6,0
BEIDOU-3 M17 (C36),2018-093A,2026-06-17T10:07:59.822688,1.86228332,.0010176,54.1690,182.2880,292.0990,142.8043,0,U,43706,999,5154,0,.58E-6,0
BEIDOU-3 M18 (C37),2018-093B,2026-06-19T07:43:10.215264,1.86226376,.00080161,54.1697,182.2155,320.7909,39.1732,0,U,43707,999,5157,0,.59E-6,0
GPS BIII-1  (PRN 04),2018-109A,2026-06-19T06:24:05.791680,2.00561682,.00382019,55.6835,92.1043,197.8854,347.3976,0,U,43873,999,5511,0,-.15E-6,0
BEIDOU-3 IGSO-1 (C38),2019-023A,2026-06-19T15:08:57.350112,1.00290861,.00255776,58.6985,37.6233,225.7008,349.9014,0,U,44204,999,723,0,-.227E-5,0
